satname,norad_id,inclination_deg,eccentricity,mean_motion_rev_per_day,perigee_km,apogee_km,l1,l2
STARLINK-1413,45689,53.1567,0.0003221,15.32794104,465.2754949230293,469.68544169611414,1 45689U 20035AJ  26133.20347952  .00026147  00000+0  82277-3 0  9997,2 45689  53.1567 109.5931 0003221  73.7325 286.4031 15.32794104328771
STARLINK-1417,45693,53.0477,0.0005881,15.15581785,515.1565441248367,523.2692070485018,1 45693U 20035AN  26133.35060224  .00017194  00000+0  90880-3 0  9993,2 45693  53.0477 120.5143 0005881  58.7044 301.4524 15.15581785328694
STARLINK-1420,45695,53.0462,0.000667,15.65534876,367.1987599678214,376.20304372888677,1 45695U 20035AQ  26133.95285741  .00039080  00000+0  38560-3 0  9999,2 45695  53.0462  64.4223 0006670  60.9320 299.2362 15.65534876329547
STARLINK-1422,45696,53.1563,0.0003539,15.32904836,464.72824707364,469.5733417745323,1 45696U 20035AR  26133.33757299  .00030134  00000+0  94266-3 0  9990,2 45696  53.1563 108.9275 0003539  67.4005 292.7371 15.32904836328879
STARLINK-1351,45697,53.0443,0.0006432,15.63583618,372.9702211573049,381.6604350321668,1 45697U 20035AS  26133.11760522  .00076388  00000+0  80500-3 0  9997,2 45697  53.0443  68.6578 0006432  64.8415 295.3265 15.63583618329412
STARLINK-1400,45700,53.0436,0.0005342,15.61230936,380.48794696241293,387.71272133021466,1 45700U 20035AV  26133.93264415  .00077798  00000+0  89836-3 0  9999,2 45700  53.0436  66.8858 0005342  31.1777 328.9551 15.61230936329508
STARLINK-1403,45701,53.1541,0.0003102,15.31908521,467.9941466360151,472.24280433300555,1 45701U 20035AW  26133.13751677  .00026864  00000+0  86862-3 0  9997,2 45701  53.1541  97.2181 0003102  78.9695 281.1656 15.31908521329015
STARLINK-1407,45703,53.0299,0.0002495,15.69985118,357.25868237502436,360.62048358993343,1 45703U 20035AY  26132.91430275  .00042074  00000+0  34635-3 0  9994,2 45703  53.0299   0.1235 0002495 354.0639   6.0348 15.69985118330358
STARLINK-1411,45706,53.0357,0.0002136,15.79396657,330.7156985360716,333.58233272194775,1 45706U 20035BB  26134.00002315  .00092057  00000+0  49728-3 0  9994,2 45706  53.0357  18.4277 0002136 143.1271 197.6368 15.79396657  5943
STARLINK-1423,45710,53.0436,0.0007601,15.66377134,364.1523317225274,374.40975663328663,1 45710U 20035BF  26133.10515360  .00037961  00000+0  36225-3 0  9999,2 45710  53.0436  68.2080 0007601  30.2351 329.9101 15.66377134329408
STARLINK-1433,45711,53.0441,0.0007533,15.6599693,365.28947177479677,375.45677712829456,1 45711U 20035BG  26133.91337933  .00035663  00000+0  34597-3 0  9994,2 45711  53.0441  62.7562 0007533  39.2035 320.9524 15.65996930329557
STARLINK-1434,45712,53.0506,0.0003624,15.32327707,466.3881169621027,471.3508272530862,1 45712U 20035BH  26133.12045508  .00029437  00000+0  93790-3 0  9994,2 45712  53.0506  80.2416 0003624  32.9793 327.1433 15.32327707329250
STARLINK-1465,45731,53.0474,0.0001379,15.60323412,385.789266073989,387.6550142248425,1 45731U 20038B   26133.55087397  .00048196  00000+0  58101-3 0  9997,2 45731  53.0474 269.4744 0001379 244.2903 115.7967 15.60323412326470
STARLINK-1471,45735,53.0445,0.0002845,15.52291666,408.1056309692176,411.9681018992196,1 45735U 20038F   26133.87038447  .00015704  00000+0  26090-3 0  9999,2 45735  53.0445 188.9020 0002845  56.9375 303.1906 15.52291666327646
STARLINK-1480,45741,53.0482,0.0004413,15.61772023,379.5548745011947,385.5218465744065,1 45741U 20038M   26133.53391566  .00067703  00000+0  76751-3 0  9998,2 45741  53.0482 263.2337 0004413 305.2809  54.7790 15.61772023326579
STARLINK-1500,45744,53.0359,0.0002424,15.38060937,450.1881651900503,453.499339858874,1 45744U 20038Q   26133.52753055  .00014966  00000+0  40324-3 0  9995,2 45744  53.0359 247.8008 0002424  95.4977 264.6302 15.38060937326784
STARLINK-1504,45746,53.0205,0.0003165,15.57422572,392.97590575430604,397.26337720836364,1 45746U 20038S   26133.58452828  .00018967  00000+0  26003-3 0  9990,2 45746  53.0205 188.0514 0003165  31.8853 328.2349 15.57422572327613
STARLINK-1506,45747,53.0738,0.0003904,15.27888216,479.44809479677224,484.80458841389736,1 45747U 20038T   26133.51825719  .00003979  00000+0  15686-3 0  9999,2 45747  53.0738 262.0798 0003904  98.6835 261.4606 15.27888216326592
STARLINK-1464,45751,53.0469,0.0002057,15.52252808,408.7538021929995,411.5465035276866,1 45751U 20038X   26133.51878374  .00046796  00000+0  76063-3 0  9999,2 45751  53.0469 254.4881 0002057 318.7034  41.3819 15.52252808326693
STARLINK-1477,45754,53.0484,0.000138,15.17756694,511.67121799391134,513.5730675173108,1 45754U 20038AA  26133.37040035  .00018708  00000+0  92834-3 0  9997,2 45754  53.0484 278.2085 0001380 156.3047 203.8010 15.17756694326344
STARLINK-1478,45755,53.0462,0.000257,15.65609352,369.7521870708588,373.2214937248227,1 45755U 20038AB  26133.50163858  .00034641  00000+0  34187-3 0  9993,2 45755  53.0462 241.8353 0002570 346.5552  13.5394 15.65609352326859
STARLINK-1493,45759,53.0478,0.0005255,15.61201079,380.6329485693823,387.7401506200058,1 45759U 20038AF  26133.78222636  .00065791  00000+0  76266-3 0  9991,2 45759  53.0478 249.4362 0005255 294.9613  65.0853 15.61201079326774
STARLINK-1494,45760,53.0412,0.0007181,15.92569088,290.3044332501204,299.8885311772765,1 45760U 20038AG  26134.00002315  .00229590  30972-4  66367-3 0  9995,2 45760  53.0412 182.8243 0007181 356.4599 345.0073 15.92569088  6028
STARLINK-1502,45764,53.0471,0.0005852,15.57554441,390.77384874785366,398.70082086931234,1 45764U 20038AL  26133.51936010  .00059650  00000+0  79512-3 0  9990,2 45764  53.0471 253.8604 0005852 263.0621  96.9724 15.57554441326702
STARLINK-1470,45772,53.0439,0.0002691,15.33476026,463.60925499285713,467.2924739815244,1 45772U 20038AU  26133.96133479  .00033101  00000+0  10156-2 0  9997,2 45772  53.0439 230.0386 0002691 309.5055  50.5707 15.33476026327078
STARLINK-1482,45773,53.1576,0.0002594,15.35745587,456.9333152111667,460.48026977071095,1 45773U 20038AV  26133.49021666  .00031031  00000+0  88694-3 0  9993,2 45773  53.1576 248.7935 0002594 293.6133  66.4598 15.35745587326784
STARLINK-1496,45780,53.0465,0.0006936,15.59199448,385.2783981782004,394.66712003603334,1 45780U 20038BC  26133.54243597  .00045385  00000+0  57105-3 0  9996,2 45780  53.0465 224.8390 0006936 354.5329   5.5606 15.59199448327090
STARLINK-1513,45786,53.1583,0.0001205,15.31699462,469.91630910494587,471.5668888472983,1 45786U 20038BJ  26133.52012654  .00000689  00000+0  33980-4 0  9992,2 45786  53.1583 249.7167 0001205  91.6075 268.5065 15.31699462326772
STARLINK-1522,46027,53.063,0.0002349,15.12086339,528.2157030457347,531.4610698822953,1 46027U 20055A   26133.58599138  .00011262  00000+0  66293-3 0  9994,2 46027  53.0630 193.3078 0002349 339.4790  20.6106 15.12086339318692
STARLINK-1523,46028,53.1601,0.0001207,15.30196472,474.3984025454056,476.05280427786965,1 46028U 20055B   26133.37983875  .00001156  00000+0  51140-4 0  9994,2 46028  53.1601 186.2232 0001207  88.5713 271.5426 15.30196472318809
STARLINK-1526,46029,53.1594,0.0001195,15.30196242,474.4073132397307,476.04526706607703,1 46029U 20055C   26133.43883391  .00002430  00000+0  94146-4 0  9993,2 46029  53.1594 185.9610 0001195  98.9831 261.1305 15.30196242318805
STARLINK-1555,46032,53.1595,0.0001267,15.30194025,474.3645877828085,476.1012317179402,1 46032U 20055F   26133.42302419  .00000971  00000+0  44918-4 0  9993,2 46032  53.1595 186.0161 0001267  82.1758 277.9387 15.30194025318808
STARLINK-1556,46033,53.1602,0.0001365,15.30197903,474.28584727834823,476.1568141026273,1 46033U 20055G   26133.86337059 -.00001311  00000+0 -32143-4 0  9998,2 46033  53.1602 183.9874 0001365  90.7904 269.3253 15.30197903318841
STARLINK-1557,46034,53.1614,0.0001281,15.30188871,474.37038015192684,476.1262174654812,1 46034U 20055H   26133.40933166  .00000163  00000+0  17647-4 0  9994,2 46034  53.1614 186.0940 0001281  81.4812 278.6334 15.30188871318774
STARLINK-1558,46035,53.1604,0.0001119,15.30194457,474.46472791958877,475.9985118167151,1 46035U 20055J   26133.87390854  .00000726  00000+0  36645-4 0  9991,2 46035  53.1604 183.9347 0001119  84.5604 275.5524 15.30194457318879
STARLINK-1560,46036,53.16,0.0001105,15.30188994,474.4906325135107,476.0052305833824,1 46036U 20055K   26133.86021278  .00000628  00000+0  33334-4 0  9995,2 46036  53.1600 184.0069 0001105  89.4648 270.6480 15.30188994318872
STARLINK-1569,46039,53.1601,0.0001124,15.3019323,474.46496444888544,476.0056025382137,1 46039U 20055N   26133.41986047  .00000456  00000+0  27508-4 0  9998,2 46039  53.1601 186.0335 0001124  86.5776 273.5353 15.30193230318796
STARLINK-1582,46043,53.1591,0.0001233,15.3170411,469.88327853402916,471.57220857979155,1 46043U 20055S   26133.85365348  .00001292  00000+0  53381-4 0  9993,2 46043  53.1591 183.6939 0001233  88.9722 271.1421 15.31704110318864
STARLINK-1591,46045,53.1578,0.0001289,15.30182178,474.38487927435835,476.15168715637174,1 46045U 20055U   26133.84441679  .00002240  00000+0  87768-4 0  9996,2 46045  53.1578 184.0672 0001289  92.4468 267.6680 15.30182178318846
STARLINK-1524,46047,53.1602,0.0001015,15.3169158,470.0699313598525,471.4602584851218,1 46047U 20055W   26133.95349420 -.00000256  00000+0  35222-5 0  9996,2 46047  53.1602 170.5259 0001015  85.6565 274.4552 15.31691580319068
STARLINK-1527,46048,53.1604,0.0001243,15.31695158,469.90311180908793,471.60574621833985,1 46048U 20055X   26133.49206480  .00000810  00000+0  37873-4 0  9992,2 46048  53.1604 172.6556 0001243  97.1863 262.9279 15.31695158318967
STARLINK-1540,46051,53.1576,0.0001065,15.30192744,474.5068503102957,475.9666189157688,1 46051U 20055AA  26133.54150312  .00000347  00000+0  23843-4 0  9991,2 46051  53.1576 172.6119 0001065  97.5817 262.5304 15.30192744319013
STARLINK-1541,46052,53.1593,0.0002158,15.76697158,338.3563216122284,341.2557858342152,1 46052U 20055AB  26133.89358369  .00096167  00000+0  58572-3 0  9993,2 46052  53.1593 163.5262 0002158  67.7810 292.3440 15.76697158319131
